STARLINK-1831
1 26728C 20073BL  21325.14411444  .00108261  00000-0  13577-2 0  3251
2 26728  53.0529  61.8446 0003964  29.6721 204.3268 15.58991467    12
